{"version":0.6,"generator":"Overpass API 0.7.61.5 4133829e","osm3s":{"timestamp_osm_base":"2023-10-12T08:57:00Z","copyright":"The data included in this document is from www.openstreetmap.org. The data is made available under ODbL."},"elements":[{"type":"node","id":795613011,"lat":40.9886935,"lon":28.845554,"tags":{"amenity":"cafe","name":"Atrium AVM"}},{"type":"node","id":1934747147,"lat":40.9783506,"lon":28.8509544,"tags":{"addr:housename":"Ataköyplus AVM","amenity":"cafe","brand":"Starbucks","brand:wikidata":"Q37158","brand:wikipedia":"en:Starbucks","cuisine":"coffee_shop","internet_access":"wlan","internet_access:fee":"no","internet_access:ssid":"Wispotter","name":"Starbucks","official_name":"Starbucks Coffee","smoking":"outside","takeaway":"yes"}},{"type":"node","id":2881830837,"lat":40.980825,"lon":28.815874,"tags":{"amenity":"cafe","brand":"Starbucks","brand:wikidata":"Q37158","cuisine":"coffee_shop","name":"Starbucks","official_name":"Starbucks Coffee","takeaway":"yes"}},{"type":"node","id":3968165729,"lat":40.9578719,"lon":28.8320835,"tags":{"amenity":"cafe","name":"Cafe Le Manza","name:en":"Cafe Le Manza","name:tr":"Cafe Le Manza"}},{"type":"node","id":4114125892,"lat":40.9647137,"lon":28.8374613,"tags":{"amenity":"cafe","name":"Asli Börek"}},{"type":"node","id":4357266490,"lat":40.9779743,"lon":28.8178554,"tags":{"amenity":"cafe","cuisine":"turkish","ele":"Departure Floor","internet_access":"wlan","level":"1","name":"Take off Cafe","name:it":"Take Off"}},{"type":"node","id":4514322889,"lat":40.9601178,"lon":28.809844,"tags":{"amenity":"cafe","name:en":"DHMI Florya Tesisleri"}},{"type":"node","id":4519705617,"lat":40.9645948,"lon":28.8435498,"tags":{"addr:city":"İstanbul","addr:housenumber":"10","addr:postcode":"34149","addr:street":"Yeşilyurt Sahil Yolu Caddesi","amenity":"cafe","internet_access":"wlan","name":"Manzara Kafe","smoking":"isolated"}},{"type":"node","id":4704329292,"lat":40.9573559,"lon":28.8227772,"tags":{"amenity":"cafe","name":"Lazilla","name:tr":"Lazilla"}},{"type":"node","id":4704456690,"lat":40.9584439,"lon":28.8228816,"tags":{"addr:postcode":"34149","addr:street":"Alişan Yedi başlar sokak","amenity":"cafe","name":"Yeşilköy Spor kulübü"}},{"type":"node","id":4704456790,"lat":40.9579447,"lon":28.8229258,"tags":{"amenity":"cafe","name":"Tilbe Kafe","name:tr":"Tilbe Kafe"}},{"type":"node","id":4952678911,"lat":40.9590617,"lon":28.8225457,"tags":{"amenity":"cafe","brand":"Mado","brand:wikidata":"Q17116336","brand:wikipedia":"en:Mado (food company)","cuisine":"coffee_shop","name":"Mado","name:en":"Mado Patisserie","takeaway":"yes"}},{"type":"node","id":5484693435,"lat":40.9636213,"lon":28.8265781,"tags":{"amenity":"cafe"}},{"type":"node","id":5666189576,"lat":40.9786467,"lon":28.8507648,"tags":{"addr:city":"İstanbul","addr:district":"Bakirköy","addr:neighbourhood":"Ataköy 7-8. Kisim","amenity":"cafe","brand":"Kahve Dünyası","brand:wikidata":"Q28008050","cuisine":"coffee_shop","internet_access":"wlan","internet_access:fee":"no","internet_access:ssid":"KAHVEDUNYASI","name":"Kahve Dünyası","outdoor_seating":"yes","smoking":"isolated","takeaway":"yes"}},{"type":"node","id":5666256910,"lat":40.978671,"lon":28.8498712,"tags":{"addr:city":"İstanbul","addr:district":"Bakirköy","addr:neighbourhood":"Ataköy 7-8. Kisim","amenity":"cafe","cuisine":"coffee_shop","internet_access":"wlan","internet_access:fee":"no","name":"Lavazza","outdoor_seating":"yes"}},{"type":"node","id":6050767388,"lat":40.9770726,"lon":28.8195414,"tags":{"amenity":"cafe","name:it":"Nero"}},{"type":"node","id":6260682189,"lat":40.9604798,"lon":28.8068199,"tags":{"amenity":"cafe","name":"Florya Sosyal Tesis Kafe"}},{"type":"node","id":6261250487,"lat":40.9585773,"lon":28.8216432,"tags":{"amenity":"cafe","brand":"Starbucks","brand:wikidata":"Q37158","brand:wikipedia":"en:Starbucks","cuisine":"coffee_shop","name":"Starbucks","official_name":"Starbucks Coffee","takeaway":"yes"}},{"type":"node","id":8027719761,"lat":40.9610549,"lon":28.8244404,"tags":{"amenity":"cafe","name":"Dumanti"}},{"type":"node","id":8027757288,"lat":40.9583675,"lon":28.8216704,"tags":{"amenity":"cafe","name":"Jovi Coffee"}},{"type":"node","id":8027760322,"lat":40.9582908,"lon":28.8209038,"tags":{"amenity":"cafe","brand":"Kahve Dünyası","brand:wikidata":"Q28008050","cuisine":"coffee_shop","name":"Kahve Dünyası","takeaway":"yes"}},{"type":"node","id":8296307001,"lat":40.9804203,"lon":28.8546977,"tags":{"amenity":"cafe","name":"Hookah Ambiance Cafe"}},{"type":"node","id":8296307006,"lat":40.9793756,"lon":28.8544927,"tags":{"amenity":"cafe","name":"Mantar Cafe & Bistro"}},{"type":"node","id":9534537114,"lat":40.9918363,"lon":28.8336095,"tags":{"amenity":"cafe","name":"Mikel"}},{"type":"node","id":11212800237,"lat":40.9833371,"lon":28.8481521,"tags":{"amenity":"cafe","name":"Collective Coffee"}}]}
